NORAD_CAT_ID,OBJECT_NAME,OBJECT_TYPE,EPOCH,MEAN_MOTION,ECCENTRICITY,INCLINATION,RA_OF_ASC_NODE,ARG_OF_PERICENTER,MEAN_ANOMALY,BSTAR,MEAN_MOTION_DOT,MEAN_MOTION_DDOT,TLE_LINE0,TLE_LINE1,TLE_LINE2,SEMIMAJOR_AXIS,PERIOD,APOGEE,PERIGEE,DECAYED
51125.0,STARLINK-3387,PAYLOAD,2024-03-14 21:15:07,15.08839365,0.0001416,53.2162,312.9021,114.8921,245.2219,0.00013518,1.864e-05,0.0,0 STARLINK-3387,1 51125U 22005X   24074.88549952  .00001864  00000-0  13518-3 0  9990,2 51125  53.2162 312.9021 0001416 114.8921 245.2219 15.08839365119308,6917.882,95.438,540.727,538.768,0.0
51125.0,STARLINK-3387,PAYLOAD,2024-03-15 02:01:16,15.08839762,0.0001365,53.2169,312.0086,98.6889,261.4258,0.00014466,2.015e-05,0.0,0 STARLINK-3387,1 51125U 22005X   24075.08422193  .00002015  00000-0  14466-3 0  9992,2 51125  53.2169 312.0086 0001365  98.6889 261.4258 15.08839762119339,6917.881,95.438,540.69,538.802,0.0
51125.0,STARLINK-3387,PAYLOAD,2024-03-16 00:16:40,15.08840958,0.000122,53.2164,307.8455,99.065,261.048,0.00029379,4.391e-05,0.0,0 STARLINK-3387,1 51125U 22005X   24076.01158387  .00004391  00000-0  29379-3 0  9995,2 51125  53.2164 307.8455 0001220  99.0650 261.0480 15.08840958120599,6917.877,95.437,540.586,538.898,0.0
51125.0,STARLINK-3387,PAYLOAD,2024-03-16 19:21:18,15.08836771,0.0001126,53.2159,304.2775,102.1033,258.0085,0.00010182,1.333e-05,0.0,0 STARLINK-3387,1 51125U 22005X   24076.80646633  .00001333  00000-0  10182-3 0  9993,2 51125  53.2159 304.2775 0001126 102.1033 258.0085 15.08836771120714,6917.89,95.438,540.534,538.976,0.0
51125.0,STARLINK-3387,PAYLOAD,2024-03-16 22:32:05,15.08837727,0.0001142,53.216,303.6832,101.5549,258.5571,0.00011989,1.621e-05,0.0,0 STARLINK-3387,1 51125U 22005X   24076.93894696  .00001621  00000-0  11989-3 0  9997,2 51125  53.2160 303.6832 0001142 101.5549 258.5571 15.08837727119610,6917.887,95.438,540.542,538.962,0.0
51125.0,STARLINK-3387,PAYLOAD,2024-03-17 20:47:28,15.08843199,0.0001144,53.2164,299.521,96.6851,263.4271,0.00022138,3.237e-05,0.0,0 STARLINK-3387,1 51125U 22005X   24077.86630657  .00003237  00000-0  22138-3 0  9998,2 51125  53.2164 299.5210 0001144  96.6851 263.4271 15.08843199120871,6917.871,95.437,540.527,538.944,0.0
51125.0,STARLINK-3387,PAYLOAD,2024-03-17 22:22:51,15.08844964,0.0001182,53.2162,299.2244,93.1308,266.9819,0.00024676,3.642e-05,0.0,0 STARLINK-3387,1 51125U 22005X   24077.93254621  .00003642  00000-0  24676-3 0  9998,2 51125  53.2162 299.2244 0001182  93.1308 266.9819 15.08844964119767,6917.865,95.437,540.548,538.913,0.0
51125.0,STARLINK-3387,PAYLOAD,2024-03-18 20:38:16,15.08842829,0.0001179,53.2159,295.0621,92.8152,267.2975,0.00018409,2.643e-05,0.0,0 STARLINK-3387,1 51125U 22005X   24078.85990894  .00002643  00000-0  18409-3 0  9996,2 51125  53.2159 295.0621 0001179  92.8152 267.2975 15.08842829121022,6917.872,95.437,540.552,538.921,0.0
51125.0,STARLINK-3387,PAYLOAD,2024-03-20 13:58:17,15.08844241,0.0001838,53.2167,287.3319,75.5443,284.5753,0.00069787,0.00010837,0.0,0 STARLINK-3387,1 51125U 22005X   24080.58214972  .00010837  00000-0  69787-3 0  9994,2 51125  53.2167 287.3319 0001838  75.5443 284.5753 15.08844241120162,6917.867,95.437,541.004,538.461,0.0
51125.0,STARLINK-3387,PAYLOAD,2024-03-20 20:19:49,15.0884673,9.75e-05,53.2167,286.1285,100.3982,259.712,0.00017675,2.527e-05,0.0,0 STARLINK-3387,1 51125U 22005X   24080.84710370  .00002527  00000-0  17675-3 0  9992,2 51125  53.2167 286.1285 0000975 100.3982 259.7120 15.08846730121323,6917.86,95.437,540.399,539.05,0.0
51125.0,STARLINK-3387,PAYLOAD,2024-03-21 13:49:04,15.088379,0.0001145,53.2151,282.8616,112.7064,247.4049,-6.4812e-06,-3.91e-06,0.0,0 STARLINK-3387,1 51125U 22005X   24081.57574734 -.00000391  00000-0 -64812-5 0  9991,2 51125  53.2151 282.8616 0001145 112.7064 247.4049 15.08837900120316,6917.887,95.438,540.544,538.96,0.0
51125.0,STARLINK-3387,PAYLOAD,2024-03-21 20:10:36,15.08846843,0.0001178,53.216,281.6733,88.9288,271.1839,7.2297e-05,8.63e-06,0.0,0 STARLINK-3387,1 51125U 22005X   24081.84070486  .00000863  00000-0  72297-4 0  9993,2 51125  53.2160 281.6733 0001178  88.9288 271.1839 15.08846843121476,6917.859,95.437,540.539,538.91,0.0
51125.0,STARLINK-3387,PAYLOAD,2024-03-21 23:21:23,15.08846764,0.0001211,53.2158,281.0789,92.898,267.2151,7.8529e-05,9.62e-06,0.0,0 STARLINK-3387,1 51125U 22005X   24081.97318444  .00000962  00000-0  78529-4 0  9990,2 51125  53.2158 281.0789 0001211  92.8980 267.2151 15.08846764120372,6917.86,95.437,540.562,538.887,0.0
51125.0,STARLINK-3387,PAYLOAD,2024-03-22 18:26:01,15.08838573,0.0001282,53.2164,277.5108,84.0579,276.056,0.00012933,1.771e-05,0.0,0 STARLINK-3387,1 51125U 22005X   24082.76806915  .00001771  00000-0  12933-3 0  9998,2 51125  53.2164 277.5108 0001282  84.0579 276.0560 15.08838573121618,6917.885,95.438,540.637,538.863,0.0
51125.0,STARLINK-3387,PAYLOAD,2024-03-23 19:52:11,15.08839202,0.0001156,53.2169,272.7578,88.3631,271.7493,7.7919e-05,9.52e-06,0.0,0 STARLINK-3387,1 51125U 22005X   24083.82791242  .00000952  00000-0  77919-4 0  9998,2 51125  53.2169 272.7578 0001156  88.3631 271.7493 15.08839202121771,6917.883,95.438,540.548,538.948,0.0
51125.0,STARLINK-3387,PAYLOAD,2024-03-24 11:46:03,15.08836153,0.0002181,53.2168,269.7835,80.81,279.3139,4.5646e-05,4.38e-06,0.0,0 STARLINK-3387,1 51125U 22005X   24084.49031556  .00000438  00000-0  45646-4 0  9998,2 51125  53.2168 269.7835 0002181  80.8100 279.3139 15.08836153120759,6917.892,95.438,541.266,538.248,0.0
51125.0,STARLINK-3387,PAYLOAD,2024-03-24 21:18:21,15.08844424,0.0001221,53.2164,267.9983,80.9381,279.1749,0.00024043,3.541e-05,0.0,0 STARLINK-3387,1 51125U 22005X   24084.88775390  .00003541  00000-0  24043-3 0  9997,2 51125  53.2164 267.9983 0001221  80.9381 279.1749 15.08844424121931,6917.867,95.437,540.577,538.887,0.0
51125.0,STARLINK-3387,PAYLOAD,2024-03-25 19:33:45,15.08849681,0.0001271,53.2163,263.8344,78.061,282.0524,0.00021781,3.181e-05,0.0,0 STARLINK-3387,1 51125U 22005X   24085.81511082  .00003181  00000-0  21781-3 0  9993,2 51125  53.2163 263.8344 0001271  78.0610 282.0524 15.08849681120959,6917.851,95.437,540.595,538.837,0.0
51125.0,STARLINK-3387,PAYLOAD,2024-03-26 05:06:04,15.08855162,0.0001354,53.2162,262.0525,80.2282,279.8863,0.0003704,5.614e-05,0.0,0 STARLINK-3387,1 51125U 22005X   24086.21254810  .00005614  00000-0  37040-3 0  9999,2 51125  53.2162 262.0525 0001354  80.2282 279.8863 15.08855162122135,6917.834,95.437,540.636,538.762,0.0
51125.0,STARLINK-3387,PAYLOAD,2024-03-26 17:49:10,15.08828304,0.0001219,53.2172,259.6747,88.9304,271.1828,-5.8915e-05,-1.225e-05,0.0,0 STARLINK-3387,1 51125U 22005X   24086.74248102 -.00001225  00000-0 -58915-4 0  9995,2 51125  53.2172 259.6747 0001219  88.9304 271.1828 15.08828304122217,6917.916,95.438,540.624,538.938,0.0
51125.0,STARLINK-3387,PAYLOAD,2024-03-27 04:56:51,15.0884235,0.0001463,53.2171,257.59,101.2738,258.8418,0.00015045,2.107e-05,0.0,0 STARLINK-3387,1 51125U 22005X   24087.20615557  .00002107  00000-0  15045-3 0  9993,2 51125  53.2171 257.5900 0001463 101.2738 258.8418 15.08842350122286,6917.873,95.437,540.75,538.726,0.0
51125.0,STARLINK-3387,PAYLOAD,2024-03-27 14:29:10,15.08843663,0.0001523,53.2175,255.8075,96.8654,263.2511,0.00022409,3.281e-05,0.0,0 STARLINK-3387,1 51125U 22005X   24087.60359754  .00003281  00000-0  22409-3 0  9997,2 51125  53.2175 255.8075 0001523  96.8654 263.2511 15.08843663121222,6917.869,95.437,540.788,538.681,0.0
51125.0,STARLINK-3387,PAYLOAD,2024-03-27 17:39:57,15.08841346,0.0001355,53.2171,255.2141,92.8603,267.2544,0.00022721,3.33e-05,0.0,0 STARLINK-3387,1 51125U 22005X   24087.73607816  .00003330  00000-0  22721-3 0  9998,2 51125  53.2171 255.2141 0001355  92.8603 267.2544 15.08841346121247,6917.876,95.437,540.679,538.804,0.0
51125.0,STARLINK-3387,PAYLOAD,2024-03-28 11:09:11,15.08844427,0.0001377,53.2169,251.9427,92.6041,267.5108,0.00031335,4.703e-05,0.0,0 STARLINK-3387,1 51125U 22005X   24088.46471784  .00004703  00000-0  31335-3 0  9998,2 51125  53.2169 251.9427 0001377  92.6041 267.5108 15.08844427122470,6917.867,95.437,540.684,538.779,0.0
51125.0,STARLINK-3387,PAYLOAD,2024-03-29 10:59:59,15.08830737,7.98e-05,53.2171,247.4827,60.2729,299.8343,-4.6384e-05,-1.026e-05,0.0,0 STARLINK-3387,1 51125U 22005X   24089.45832470 -.00001026  00000-0 -46384-4 0  9999,2 51125  53.2171 247.4827 0000798  60.2729 299.8343 15.08830737122622,6917.909,95.438,540.326,539.222,0.0
51125.0,STARLINK-3387,PAYLOAD,2024-03-29 17:21:31,15.08839833,7.15e-05,53.2182,246.2941,83.9812,276.1262,0.00014879,2.081e-05,0.0,0 STARLINK-3387,1 51125U 22005X   24089.72328239  .00002081  00000-0  14879-3 0  9995,2 51125  53.2182 246.2941 0000715  83.9812 276.1262 15.08839833121546,6917.881,95.438,540.241,539.251,0.0
51125.0,STARLINK-3387,PAYLOAD,2024-03-30 02:53:50,15.08845455,0.0001766,53.2172,244.5075,91.9656,268.1538,0.00018675,2.686e-05,0.0,0 STARLINK-3387,1 51125U 22005X   24090.12071978  .00002686  00000-0  18675-3 0  9995,2 51125  53.2172 244.5075 0001766  91.9656 268.1538 15.08845455122721,6917.864,95.437,540.95,538.507,0.0
51125.0,STARLINK-3387,PAYLOAD,2024-03-30 14:01:32,15.08830138,0.0001108,53.2164,242.4279,99.769,260.3427,4.1796e-05,3.77e-06,0.0,0 STARLINK-3387,1 51125U 22005X   24090.58440704  .00000377  00000-0  41796-4 0  9998,2 51125  53.2164 242.4279 0001108  99.7690 260.3427 15.08830138121675,6917.911,95.438,540.542,539.009,0.0
51125.0,STARLINK-3387,PAYLOAD,2024-03-30 17:12:18,15.08833604,0.0001145,53.2166,241.834,99.4576,260.6545,9.1217e-05,1.164e-05,0.0,0 STARLINK-3387,1 51125U 22005X   24090.71688626  .00001164  00000-0  91217-4 0  9998,2 51125  53.2166 241.8340 0001145  99.4576 260.6545 15.08833604122812,6917.9,95.438,540.557,538.973,0.0
51125.0,STARLINK-3387,PAYLOAD,2024-03-31 02:44:37,15.08850187,6.84e-05,53.2198,240.0478,74.1936,285.9131,0.00025144,3.717e-05,0.0,0 STARLINK-3387,1 51125U 22005X   24091.11431922  .00003717  00000-0  25144-3 0  9999,2 51125  53.2198 240.0478 0000684  74.1936 285.9131 15.08850187122879,6917.849,95.437,540.187,539.241,0.0
